{"fetched_at":"2026-03-28T16:33:49Z","count":6709,"tles":[{"name":"CENTISPACE-1 OBJECT J","line1":"1 68358U 26060J   26084.61779005  .00000017  00000+0  33263-4 0  9997","line2":"2 68358  54.9877  16.6351 0013871 306.1411  53.8304 14.75435012   443","category":"Other"}]}